NORAD_CAT_ID,OBJECT_NAME,OBJECT_TYPE,EPOCH,MEAN_MOTION,ECCENTRICITY,INCLINATION,RA_OF_ASC_NODE,ARG_OF_PERICENTER,MEAN_ANOMALY,BSTAR,MEAN_MOTION_DOT,MEAN_MOTION_DDOT,TLE_LINE0,TLE_LINE1,TLE_LINE2,SEMIMAJOR_AXIS,PERIOD,APOGEE,PERIGEE,DECAYED
52664.0,STARLINK-4070,PAYLOAD,2023-11-29 07:13:30,15.08845714,0.0001666,53.2179,286.3649,110.2175,249.8996,0.00033636,5.07e-05,0.0,0 STARLINK-4070,1 52664U 22053J   23333.30104982  .00005070  00000-0  33636-3 0  9992,2 52664  53.2179 286.3649 0001666 110.2175 249.8996 15.08845714 85537,6917.863,95.437,540.88,538.575,0.0
52664.0,STARLINK-4070,PAYLOAD,2023-11-30 02:18:08,15.08842905,0.000188,53.2185,282.793,113.2606,246.8584,-0.00013465,-2.431e-05,0.0,0 STARLINK-4070,1 52664U 22053J   23334.09592987 -.00002431  00000-0 -13465-3 0  9993,2 52664  53.2185 282.7930 0001880 113.2606 246.8584 15.08842905 85659,6917.872,95.437,541.037,538.436,0.0
52664.0,STARLINK-4070,PAYLOAD,2023-12-01 03:44:19,15.08839602,0.0001632,53.2189,278.0456,83.9852,276.1326,5.1374e-05,5.3e-06,0.0,0 STARLINK-4070,1 52664U 22053J   23335.15577779  .00000530  00000-0  51374-4 0  9991,2 52664  53.2189 278.0456 0001632  83.9852 276.1326 15.08839602 85813,6917.882,95.438,540.876,538.618,0.0
52664.0,STARLINK-4070,PAYLOAD,2023-12-01 05:19:42,15.08843083,0.0001755,53.2195,277.7479,99.4326,260.6865,0.00011101,1.479e-05,0.0,0 STARLINK-4070,1 52664U 22053J   23335.22201594  .00001479  00000-0  11101-3 0  9994,2 52664  53.2195 277.7479 0001755  99.4326 260.6865 15.08843083 85820,6917.871,95.437,540.95,538.522,0.0
52664.0,STARLINK-4070,PAYLOAD,2023-12-02 00:24:19,15.08853285,0.0001283,53.2176,274.1753,130.4339,229.6765,0.00032989,4.968e-05,0.0,0 STARLINK-4070,1 52664U 22053J   23336.01688741  .00004968  00000-0  32989-3 0  9998,2 52664  53.2176 274.1753 0001283 130.4339 229.6765 15.08853285 85943,6917.84,95.437,540.592,538.817,0.0
52664.0,STARLINK-4070,PAYLOAD,2023-12-02 03:35:05,15.08879318,0.0001653,53.2185,273.5798,73.946,286.1714,0.00091503,0.0001432,0.0,0 STARLINK-4070,1 52664U 22053J   23336.14936348  .00014320  00000-0  91503-3 0  9991,2 52664  53.2185 273.5798 0001653  73.9460 286.1714 15.08879318 85961,6917.76,95.435,540.769,538.482,0.0
52664.0,STARLINK-4070,PAYLOAD,2023-12-03 03:25:52,15.08843331,0.0001408,53.2168,269.1224,104.3534,255.7615,-5.4086e-05,-1.149e-05,0.0,0 STARLINK-4070,1 52664U 22053J   23337.14296733 -.00001149  00000-0 -54086-4 0  9992,2 52664  53.2168 269.1224 0001408 104.3534 255.7615 15.08843331 86112,6917.87,95.437,540.709,538.761,0.0
52664.0,STARLINK-4070,PAYLOAD,2023-12-03 05:01:15,15.08844632,0.0001515,53.2178,268.8229,94.6147,265.5018,-1.4435e-05,-5.18e-06,0.0,0 STARLINK-4070,1 52664U 22053J   23337.20920767 -.00000518  00000-0 -14435-4 0  9993,2 52664  53.2178 268.8229 0001515  94.6147 265.5018 15.08844632 86126,6917.866,95.437,540.779,538.683,0.0
52664.0,STARLINK-4070,PAYLOAD,2023-12-04 01:41:16,15.0884177,0.0002049,53.2157,264.9665,51.0675,309.05,-0.00019452,-3.383e-05,0.0,0 STARLINK-4070,1 52664U 22053J   23338.07033319 -.00003383  00000-0 -19452-3 0  9993,2 52664  53.2157 264.9665 0002049  51.0675 309.0500 15.08841770 86254,6917.875,95.437,541.157,538.323,0.0
52664.0,STARLINK-4070,PAYLOAD,2023-12-05 04:42:49,15.0884217,0.0001583,53.2191,259.9011,97.9129,262.2042,0.00014594,2.036e-05,0.0,0 STARLINK-4070,1 52664U 22053J   23339.19641084  .00002036  00000-0  14594-3 0  9995,2 52664  53.2191 259.9011 0001583  97.9129 262.2042 15.08842170 86421,6917.874,95.437,540.834,538.644,0.0
52664.0,STARLINK-4070,PAYLOAD,2023-12-06 01:22:51,15.08837915,0.0001638,53.2191,256.0339,95.8984,264.2195,4.7818e-05,4.73e-06,0.0,0 STARLINK-4070,1 52664U 22053J   23340.05753735  .00000473  00000-0  47818-4 0  9998,2 52664  53.2191 256.0339 0001638  95.8984 264.2195 15.08837915 86555,6917.887,95.438,540.885,538.619,0.0
52664.0,STARLINK-4070,PAYLOAD,2023-12-06 22:02:52,15.08831684,0.0001571,53.2175,252.167,110.9785,249.1376,1.0318e-05,-1.24e-06,0.0,0 STARLINK-4070,1 52664U 22053J   23340.91866289 -.00000124  00000-0  10318-4 0  9991,2 52664  53.2175 252.1670 0001571 110.9785 249.1376 15.08831684 86680,6917.906,95.438,540.858,538.684,0.0
52664.0,STARLINK-4070,PAYLOAD,2023-12-07 04:24:24,15.08838815,0.0001614,53.2177,250.9812,114.6386,245.4775,-4.8634e-05,-1.062e-05,0.0,0 STARLINK-4070,1 52664U 22053J   23341.18362072 -.00001062  00000-0 -48634-4 0  9997,2 52664  53.2177 250.9812 0001614 114.6386 245.4775 15.08838815 86722,6917.884,95.438,540.866,538.632,0.0
52664.0,STARLINK-4070,PAYLOAD,2023-12-08 16:58:17,15.08836325,0.0001302,53.2169,244.1435,102.2585,257.8553,3.8629e-05,3.27e-06,0.0,0 STARLINK-4070,1 52664U 22053J   23342.70714520  .00000327  00000-0  38629-4 0  9999,2 52664  53.2169 244.1435 0001302 102.2585 257.8553 15.08836325 86957,6917.892,95.438,540.657,538.856,0.0
52664.0,STARLINK-4070,PAYLOAD,2023-12-09 02:30:35,15.08845367,0.0001391,53.2169,242.3602,108.2169,251.8975,0.00010924,1.451e-05,0.0,0 STARLINK-4070,1 52664U 22053J   23343.10457657  .00001451  00000-0  10924-3 0  9995,2 52664  53.2169 242.3602 0001391 108.2169 251.8975 15.08845367 87011,6917.864,95.437,540.691,538.767,0.0
52664.0,STARLINK-4070,PAYLOAD,2023-12-09 16:49:03,15.08840686,0.0001524,53.2177,239.6839,103.1542,256.962,4.121e-05,3.68e-06,0.0,0 STARLINK-4070,1 52664U 22053J   23343.70073965  .00000368  00000-0  41210-4 0  9996,2 52664  53.2177 239.6839 0001524 103.1542 256.9620 15.08840686 87100,6917.878,95.438,540.798,538.689,0.0
52664.0,STARLINK-4070,PAYLOAD,2023-12-10 21:26:00,15.08839444,0.0001501,53.2175,234.3314,103.0461,257.0698,2.3253e-05,8.2e-07,0.0,0 STARLINK-4070,1 52664U 22053J   23344.89306142  .00000082  00000-0  23253-4 0  9993,2 52664  53.2175 234.3314 0001501 103.0461 257.0698 15.08839444 87288,6917.882,95.438,540.785,538.709,0.0
52664.0,STARLINK-4070,PAYLOAD,2023-12-10 23:01:23,15.08841281,0.0001771,53.2176,234.0357,89.2616,270.8579,-4.0377e-06,-3.52e-06,0.0,0 STARLINK-4070,1 52664U 22053J   23344.95930331 -.00000352  00000-0 -40377-5 0  9992,2 52664  53.2176 234.0357 0001771  89.2616 270.8579 15.08841281 87293,6917.876,95.437,540.967,538.516,0.0
52664.0,STARLINK-4070,PAYLOAD,2023-12-11 22:52:10,15.08840013,0.000154,53.2162,229.573,93.8569,266.2599,4.3425e-05,4.03e-06,0.0,0 STARLINK-4070,1 52664U 22053J   23345.95290080  .00000403  00000-0  43425-4 0  9994,2 52664  53.2162 229.5730 0001540  93.8569 266.2599 15.08840013 87444,6917.88,95.438,540.811,538.68,0.0
52664.0,STARLINK-4070,PAYLOAD,2023-12-12 19:32:11,15.0883925,0.0001589,53.2163,225.7049,106.6,253.5166,3.0373e-05,1.95e-06,0.0,0 STARLINK-4070,1 52664U 22053J   23346.81402115  .00000195  00000-0  30373-4 0  9990,2 52664  53.2163 225.7049 0001589 106.6000 253.5166 15.08839250 87576,6917.883,95.438,540.847,538.648,0.0
52664.0,STARLINK-4070,PAYLOAD,2023-12-12 22:42:57,15.08841144,0.0001568,53.2164,225.1148,92.5451,267.5721,4.5422e-05,4.35e-06,0.0,0 STARLINK-4070,1 52664U 22053J   23346.94650097  .00000435  00000-0  45422-4 0  9996,2 52664  53.2164 225.1148 0001568  92.5451 267.5721 15.08841144 87590,6917.877,95.437,540.827,538.657,0.0
52664.0,STARLINK-4070,PAYLOAD,2023-12-13 22:33:44,15.0883915,0.0001586,53.2171,220.6558,96.9964,263.1208,2.5385e-05,1.16e-06,0.0,0 STARLINK-4070,1 52664U 22053J   23347.94010257  .00000116  00000-0  25385-4 0  9997,2 52664  53.2171 220.6558 0001586  96.9964 263.1208 15.08839150 87743,6917.883,95.438,540.845,538.651,0.0
52664.0,STARLINK-4070,PAYLOAD,2023-12-14 20:49:08,15.08845603,0.0001521,53.2176,216.4938,96.7915,263.325,8.2239e-05,1.021e-05,0.0,0 STARLINK-4070,1 52664U 22053J   23348.86745570  .00001021  00000-0  82239-4 0  9999,2 52664  53.2176 216.4938 0001521  96.7915 263.3250 15.08845603 87880,6917.863,95.437,540.78,538.676,0.0
52664.0,STARLINK-4070,PAYLOAD,2023-12-15 19:04:33,15.08833479,0.0001397,53.2167,212.3258,110.2871,249.8272,-4.2405e-05,-9.63e-06,0.0,0 STARLINK-4070,1 52664U 22053J   23349.79482887 -.00000963  00000-0 -42405-4 0  9998,2 52664  53.2167 212.3258 0001397 110.2871 249.8272 15.08833479 88022,6917.9,95.438,540.732,538.799,0.0
52664.0,STARLINK-4070,PAYLOAD,2023-12-15 20:39:56,15.08832212,0.0001234,53.2168,212.0285,99.4921,260.6211,-4.9898e-05,-1.082e-05,0.0,0 STARLINK-4070,1 52664U 22053J   23349.86107062 -.00001082  00000-0 -49898-4 0  9991,2 52664  53.2168 212.0285 0001234  99.4921 260.6211 15.08832212 88033,6917.904,95.438,540.623,538.916,0.0
52664.0,STARLINK-4070,PAYLOAD,2023-12-16 22:06:06,15.08831838,0.0001241,53.2161,207.2694,81.5911,278.5222,4.2526e-05,3.89e-06,0.0,0 STARLINK-4070,1 52664U 22053J   23350.92091410  .00000389  00000-0  42526-4 0  9997,2 52664  53.2161 207.2694 0001241  81.5911 278.5222 15.08831838 88195,6917.905,95.438,540.629,538.912,0.0
52664.0,STARLINK-4070,PAYLOAD,2023-12-17 20:21:30,15.08842289,0.000111,53.2159,203.1089,84.3752,275.7367,0.00022698,3.327e-05,0.0,0 STARLINK-4070,1 52664U 22053J   23351.84826559  .00003327  00000-0  22698-3 0  9991,2 52664  53.2159 203.1089 0001110  84.3752 275.7367 15.08842289 88331,6917.873,95.437,540.506,538.971,0.0
52664.0,STARLINK-4070,PAYLOAD,2023-12-17 21:56:53,15.08846853,0.0001166,53.2162,202.8106,84.5023,275.6102,0.00027255,4.053e-05,0.0,0 STARLINK-4070,1 52664U 22053J   23351.91450322  .00004053  00000-0  27255-3 0  9991,2 52664  53.2162 202.8106 0001166  84.5023 275.6102 15.08846853 88343,6917.859,95.437,540.531,538.918,0.0
52664.0,STARLINK-4070,PAYLOAD,2023-12-18 20:12:17,15.08843635,0.0001412,53.2166,198.6482,75.9043,284.2106,5.7605e-05,6.29e-06,0.0,0 STARLINK-4070,1 52664U 22053J   23352.84187129  .00000629  00000-0  57605-4 0  9994,2 52664  53.2166 198.6482 0001412  75.9043 284.2106 15.08843635 88486,6917.869,95.437,540.711,538.757,0.0
52664.0,STARLINK-4070,PAYLOAD,2023-12-19 20:03:04,15.08843248,0.0001362,53.2162,194.1878,74.4692,285.6451,1.7759e-05,-5e-08,0.0,0 STARLINK-4070,1 52664U 22053J   23353.83547112 -.00000005  00000-0  17759-4 0  9991,2 52664  53.2162 194.1878 0001362  74.4692 285.6451 15.08843248 88635,6917.87,95.437,540.678,538.793,0.0
